#dP2022  5 23  0  0  0.00000000      97 __u+U IGS14 FIT  IAC
## 2211  86400.00000000   900.00000000 59722 0.0000000000000
+  117   C06C07C08C09C10C11C12C13C14C16C19C20C21C22C23C24C25
+        C26C27C28C29C30C32C33C34C35C36C37C38C39C40C41C42C43
+        C44C45C46E01E02E03E04E05E07E08E09E10E11E12E13E14E15
+        E18E19E21E24E25E26E27E30E31E33E34E36G01G02G03G04G05
+        G06G07G08G09G10G11G12G13G14G15G16G17G18G19G20G21G22
+        G23G24G25G26G27G28G29G30G31G32J02J03R01R02R03R04R05
+        R07R08R09R11R12R13R14R15R17R18R19R20R21R22R24  0  0
++         0  0  0  0  0  0  0  0  0  0  0  0  0  0  0  0  0
++         0  0  0  0  0  0  0  0  0  0  0  0  0  0  0  0  0
++         0  0  0  0  0  0  0  0  0  0  0  0  0  0  0  0  0
++         0  0  0  0  0  0  0  0  0  0  0  0  0  0  0  0  0
++         0  0  0  0  0  0  0  0  0  0  0  0  0  0  0  0  0
++         0  0  0  0  0  0  0  0  0  0  0  0  0  0  0  0  0
++         0  0  0  0  0  0  0  0  0  0  0  0  0  0  0  0  0
%c M  cc GPS ccc cccc cccc cccc cccc ccccc ccccc ccccc ccccc
%c cc cc ccc ccc cccc cccc cccc cccc ccccc ccccc ccccc ccccc
%f  1.2500000  1.025000000  0.00000000000  0.000000000000000
%f  0.0000000  0.000000000  0.00000000000  0.000000000000000
%i    0    0    0    0      0      0      0      0         0
%i    0    0    0    0      0      0      0      0         0
/* INFORMATION & ANALYSIS CENTER (IAC)            FINAL DATA
/* S/V CLOCKS ARE ALIGNED TO GNSS TIME                      
/* G:C1WC2W R:C1PC2P E:C1XC5X C:C2IC6I J:C1CC2S             
/* PCV:IGS14_2196 OL/AL:FES2004  NONE     YN ORB:CoN CLK:CoN
*  2022 05 23 15 30  0.00000000
PC06   -904.768082  35198.342479  23383.434226     42.281940
PC07 -13431.405233  26123.533538 -30298.045146   -204.073466
PC08 -16873.209767  37629.862261   8440.490021    327.489858
PC09   4322.290216  38705.637349  17136.244811   -814.644380
PC10  -4450.007840  26872.880720 -31986.254513    130.753114
PC11  19098.963608  13036.711890  15657.162522    369.992035
PC12  13405.215175  24450.963996   -889.199568   -611.529646
PC13 -10609.761781  37834.250738  15038.883542    -24.543682
PC14  26484.987622   4584.946274   7408.068430    481.815209
PC16  -3234.127074  33167.489394  26166.899424    134.024901
PC19 -27775.715371   1975.478499   2063.021113    867.022403
PC20 -22202.723867  -9278.863859 -14142.211400   -927.000921
PC21   2777.512006  15710.184131  22915.573010   -345.329675
PC22 -17563.533335  12514.687502  17734.315897   -968.320888
PC23  16280.669983 -22176.259477  -4670.978148   -930.553930
PC24  10595.251536  13468.378053 -22028.217821   -968.282541
PC25  19233.430278  -7727.831171 -18698.990006   -732.462793
PC26  -2469.503234  24564.132685 -12987.864714    733.760432
PC27  -7207.016284 -25277.428657   9325.402448    727.693678
PC28   7512.476807 -16408.173930  21284.006557     70.115444
PC29 -18423.924868  -1995.397131 -20874.988224    558.568009
PC30 -18495.369164 -19494.815564  -7492.076746    498.903641
PC32  -2895.425363 -15682.998609 -22880.477869   -964.183180
PC33  27751.557162  -2049.511817  -1928.026242   -966.300757
PC34  18784.359783  18869.812818   8381.585876   -397.087669
PC35  -7789.934966  15887.402246 -21600.478815    287.303496
PC36 -19329.075230   6704.028749  19003.393268   -964.917826
PC37   3995.912180 -24872.049991  12042.139022   -909.542052
PC38 -20450.081618  36785.158882    576.202022    234.186527
PC39  -6523.301699  29130.974569  29881.110381     34.979153
PC40 -19581.233183  19508.140075 -31917.661265    271.445158
PC41  17947.106515 -12381.010502 -17358.855347   -966.544553
PC42  21375.628102   9889.907479  14996.734006   -969.130180
PC43  18736.442657   2783.517431  20486.835310   -922.423288
PC44   7884.071890  25048.920900  -9507.369247    668.947449
PC45 -16119.534720  22334.731764   4423.893533    764.557935
PC46 -11512.319105 -12014.928969  22409.715415   -340.072129
PE01  22644.449219   1429.404454 -19011.278949   -482.125822
PE02 -22729.394649  -1294.313546  18906.691108    301.020964
PE03 -27088.291501 -10989.877776   4704.479652   -561.259779
PE04  21451.966790  -4317.226997 -19920.219501  -1034.220566
PE05 -16891.943319 -20145.467072 -13595.689573   -178.930042
PE07  -2988.143315  17452.879575  23730.682854   -671.366455
PE08 -21214.576904   4499.967775  20159.841606   -534.064030
PE09   2719.284693 -17387.553751 -23792.685518   -528.276932
PE10  10201.868049 -22027.950835  16923.606476   -514.897841
PE11   4396.496559 -28143.895786   7996.703555   3581.939639
PE12  14311.013987 -12685.231608  22578.758960   4599.362739
PE13  -4744.839149  27900.653109  -8694.583787    428.859008
PE14 -26912.284914 -14065.078917  -7034.564418  -1829.142988
PE15 -14253.553847  12584.782942 -22689.026592    743.893365
PE18  18308.543946  17436.194959  -2115.953238  -1414.960289
PE19  26626.801014  12712.233667  -2359.608900  -5151.912903
PE21   7253.939380  15043.045195 -24440.485105   -735.883250
PE24  14424.834296 -20853.434963  15275.127631   -630.807396
PE25  -6969.609207 -15203.830839  24425.941267   -574.976079
PE26   8004.727457  26243.091660  11109.542787  -1178.210744
PE27 -13254.941490  20931.284654 -16190.411843   -305.408593
PE30 -26090.792849  13751.124138   2436.293343   -533.789937
PE31  25784.677586 -14460.517757  -1503.360788   -497.091982
PE33  15310.272596  10095.973680  23235.002838   -456.352077
PE34 -15375.860794  -9834.839018 -23315.057066   -518.508095
PE36  -7483.646108 -26713.384901 -10309.232314   -377.764351
PG01  13047.597115 -14771.162225  17328.827965    356.710485
PG02 -13926.564501  -8401.574719 -20316.860052   -653.167862
PG03  22831.782527 -13045.730229  -3367.270246   -254.485640
PG04  16018.735666  -5735.180071 -20405.431937   -164.473960
PG05 -23929.879272   3343.389440 -11365.083020    -82.894095
PG06  -6367.567751 -22270.418094 -12863.779650    314.606349
PG07   5399.685873 -25334.262906  -4095.428629    322.201169
PG08  21719.296120   1757.160151  15387.819625    -69.174473
PG09   5981.020884 -14409.903081 -21555.631892   -334.477952
PG10   1879.119989  15379.838055  21682.762389   -425.736164
PG11 -13268.156948  -9638.301604 -20899.074213    -21.590834
PG12 -24851.375676   9168.848458    294.002256   -219.919623
PG13 -21980.513235 -11618.611368   9433.838018    316.779693
PG14     27.944075 -16199.734992  21030.307269   -109.474567
PG15 -21642.098164   1307.229142  15132.112936    -58.978668
PG16  22174.161740   2973.636812 -14932.638947   -503.304119
PG17  -9810.509955 -20318.693217  14400.053613    616.183920
PG18  -6362.759222  25208.192651  -5150.448562    162.339635
PG19 -16076.874253 -20129.781426   6644.741440    161.118080
PG20 -18000.719635  -4471.012190 -18921.826385    514.274914
PG21  15377.200656  -3631.538522  21916.609234    161.186851
PG22  17649.978327  19426.070716   5069.925294    263.842554
PG23  -9877.646839  17869.580931  16921.342467    -23.721364
PG24 -14289.256360  10859.290213  19150.080883    235.723017
PG25 -16316.754124  17100.058980 -12125.712555    328.354196
PG26  13989.250671   9655.413100 -20560.860945    207.582043
PG27  23220.215861  12327.987749   4841.254346    207.179391
PG28  -9061.107785 -12790.386054  21928.033756    352.623868
PG29  -6961.830623  13316.184880 -21949.030439   -516.651432
PG30   -855.945626 -25954.604188   4975.714650   -528.959044
PG31   8248.581573  20247.620083 -14879.060675   -178.815309
PG32  13145.377697  19709.245452  12343.086323   -133.800677
PJ02 -35473.429887  21985.906598  -1712.124541     -0.240714
PJ03 -19232.907305  25123.994470 -23294.340950     -2.350647
PR01  25035.655021   4500.441262   1798.245916      9.025621
PR02  18915.136552  -4543.821694 -16486.249036    519.227826
PR03   1767.821481 -10769.949329 -23005.369926     57.153555
PR04 -16065.578977 -10693.873182 -16642.189900    142.903904
PR05 -24994.527748  -4920.028252  -1072.268974     93.363593
PR07   -860.301184  10950.057287  23066.682890     35.461993
PR08  16179.569965  10743.605430  16611.655303    -65.283964
PR09 -17637.582641  17480.288469   6021.723278     56.598897
PR11   3071.160113  12732.472051 -21880.813180     38.256245
PR12  15329.071896  -3635.323318 -20041.209154     18.583163
PR13  17833.409667 -16707.806278  -7325.397502    -22.702688
PR14   9734.786659 -20689.449172  11299.172324     25.574660
PR15  -3719.306593 -12185.361651  22116.978240     95.932228
PR17  -2400.464719 -22401.588108  11997.261569    528.573057
PR18 -10348.475810 -22824.698366  -4593.624854    117.834640
PR19 -12641.156530 -12747.822040 -18127.549152   -190.051106
PR20  -7852.628900   8458.323461 -22752.690368    -71.146589
PR21   3145.327940  22934.302506 -10696.745783   -303.581802
PR22  10496.638930  22664.816860   5408.912717   -184.976406
PR24   7771.578590  -9459.523440  22389.308524     95.142723
EOF
